{"type":"FeatureCollection","features":[{"type":"Feature","id":"P001","properties":{"id":"P001","nombre":"Parada FIXTURE 3","rutas":["ruta-fixture-tres-ida"]},"geometry":{"type":"Point","coordinates":[-79.476,9.04]}},{"type":"Feature","id":"P002","properties":{"id":"P002","nombre":"Parada FIXTURE 2","rutas":["ruta-fixture-tres-ida"]},"geometry":{"type":"Point","coordinates":[-79.475697,9.034303]}},{"type":"Feature","id":"P003","properties":{"id":"P003","nombre":"Parada FIXTURE 1","rutas":["ruta-fixture-tres-ida"]},"geometry":{"type":"Point","coordinates":[-79.48,9.03]}},{"type":"Feature","id":"P004","properties":{"id":"P004","nombre":"Parada FIXTURE 5","rutas":["ruta-fixture-uno-ida","ruta-fixture-uno-vuelta"]},"geometry":{"type":"Point","coordinates":[-79.548,9.002]}},{"type":"Feature","id":"P005","properties":{"id":"P005","nombre":"Parada FIXTURE 4","rutas":["ruta-fixture-uno-ida","ruta-fixture-uno-vuelta"]},"geometry":{"type":"Point","coordinates":[-79.550297,8.995703]}},{"type":"Feature","id":"P006","properties":{"id":"P006","nombre":"Parada FIXTURE 3","rutas":["ruta-fixture-uno-ida","ruta-fixture-uno-vuelta"]},"geometry":{"type":"Point","coordinates":[-79.555041,8.990992]}},{"type":"Feature","id":"P007","properties":{"id":"P007","nombre":"Parada FIXTURE 2","rutas":["ruta-fixture-uno-ida","ruta-fixture-uno-vuelta"]},"geometry":{"type":"Point","coordinates":[-79.555218,8.984815]}},{"type":"Feature","id":"P008","properties":{"id":"P008","nombre":"Parada FIXTURE 1","rutas":["ruta-fixture-uno-ida","ruta-fixture-uno-vuelta"]},"geometry":{"type":"Point","coordinates":[-79.56,8.980033]}}]}
