{"type":"FeatureCollection","features":[{"type":"Feature","id":"ruta-fixture-tres-ida","properties":{"id":"ruta-fixture-tres-ida","ruta":"Ruta FIXTURE Tres","sentido":"ida","operador":"Cooperativa FIXTURE","tarifa_usd":0.5,"sector":"Sin sector","paradas":["P003","P002","P001"],"ultima_captura":"2026-09-15"},"geometry":{"type":"LineString","coordinates":[[-79.48,9.03],[-79.475006,9.035028],[-79.476,9.04]]}},{"type":"Feature","id":"ruta-fixture-uno-ida","properties":{"id":"ruta-fixture-uno-ida","ruta":"Ruta FIXTURE Uno","sentido":"ida","operador":"Cooperativa FIXTURE","tarifa_usd":0.5,"sector":"Sector FIXTURE Oeste","paradas":["P008","P007","P006","P005","P004"],"ultima_captura":"2026-09-16"},"geometry":{"type":"LineString","coordinates":[[-79.56,8.98],[-79.555019,8.984981],[-79.555994,8.989971],[-79.549991,8.996028],[-79.548,9.002]]}},{"type":"Feature","id":"ruta-fixture-uno-vuelta","properties":{"id":"ruta-fixture-uno-vuelta","ruta":"Ruta FIXTURE Uno","sentido":"vuelta","operador":"Cooperativa FIXTURE","tarifa_usd":0.5,"sector":"Sector FIXTURE Oeste","paradas":["P004","P005","P006","P007","P008"],"ultima_captura":"2026-09-14"},"geometry":{"type":"LineString","coordinates":[[-79.548,9.002],[-79.550013,8.995987],[-79.555975,8.990025],[-79.555003,8.984997],[-79.56,8.98]]}}]}
